{
  "type": "FeatureCollection",
  "features": [
    {
      "type": "Feature",
      "properties": {
        "norad_id": 42917,
        "name": "QZS-3 (QZSS/PRN 199)",
        "group": "gnss",
        "lat": 1.99946081997748e-05,
        "lon": -163.45902206038986,
        "alt_km": 35786.94349772451,
        "timestamp": "2025-12-20T22:39:10.872819+00:00",
        "meta_object_name": "QZS-3 (QZSS/PRN 199)",
        "meta_object_id": "2017-048A",
        "meta_epoch": "2025-12-20T12:07:22.473408",
        "meta_mean_motion": 1.00265697,
        "meta_eccentricity": 0.00018153,
        "meta_inclination": 0.0268,
        "meta_ra_of_asc_node": 167.7621,
        "meta_arg_of_pericenter": 112.0831,
        "meta_mean_anomaly": 118.3512,
        "meta_ephemeris_type": 0,
        "meta_classification_type": "U",
        "meta_norad_cat_id": 42917,
        "meta_element_set_no": 999,
        "meta_rev_at_epoch": 3046,
        "meta_bstar": 0,
        "meta_mean_motion_dot": 0,
        "meta_mean_motion_ddot": 0,
        "tle_line1": "1 42917U 17048A   25354.50512122  .00000000  00000+0  00000+0 0  9998",
        "tle_line2": "2 42917   0.0268 167.7621 0001815 112.0831 118.3512  1.00265697 30462"
      },
      "geometry": {
        "type": "Point",
        "coordinates": [
          -163.45902206038986,
          1.99946081997748e-05
        ]
      }
    },
    {
      "type": "Feature",
      "properties": {
        "norad_id": 42939,
        "name": "COSMOS 2522 (752)",
        "group": "gnss",
        "lat": 59.411693506678105,
        "lon": -37.46073228585619,
        "alt_km": 19130.707606008535,
        "timestamp": "2025-12-20T22:39:10.872829+00:00",
        "meta_object_name": "COSMOS 2522 (752)",
        "meta_object_id": "2017-055A",
        "meta_epoch": "2025-12-20T08:02:51.853632",
        "meta_mean_motion": 2.1310208,
        "meta_eccentricity": 0.00063286,
        "meta_inclination": 64.0763,
        "meta_ra_of_asc_node": 197.9702,
        "meta_arg_of_pericenter": 223.913,
        "meta_mean_anomaly": 136.112,
        "meta_ephemeris_type": 0,
        "meta_classification_type": "U",
        "meta_norad_cat_id": 42939,
        "meta_element_set_no": 999,
        "meta_rev_at_epoch": 6416,
        "meta_bstar": 0,
        "meta_mean_motion_dot": 1.01e-06,
        "meta_mean_motion_ddot": 0,
        "tle_line1": "1 42939U 17055A   25354.33532238  .00000101  00000+0  00000+0 0  9993",
        "tle_line2": "2 42939  64.0763 197.9702 0006328 223.9130 136.1120  2.13102080 64167"
      },
      "geometry": {
        "type": "Point",
        "coordinates": [
          -37.46073228585619,
          59.411693506678105
        ]
      }
    },
    {
      "type": "Feature",
      "properties": {
        "norad_id": 42965,
        "name": "QZS-4 (QZSS/PRN 195)",
        "group": "gnss",
        "lat": -20.172385659086807,
        "lon": -168.4895122723564,
        "alt_km": 34008.15413525779,
        "timestamp": "2025-12-20T22:39:10.872841+00:00",
        "meta_object_name": "QZS-4 (QZSS/PRN 195)",
        "meta_object_id": "2017-062A",
        "meta_epoch": "2025-12-20T12:23:32.377344",
        "meta_mean_motion": 1.00250818,
        "meta_eccentricity": 0.07514763,
        "meta_inclination": 40.2219,
        "meta_ra_of_asc_node": 345.7724,
        "meta_arg_of_pericenter": 271.7049,
        "meta_mean_anomaly": 153.5074,
        "meta_ephemeris_type": 0,
        "meta_classification_type": "U",
        "meta_norad_cat_id": 42965,
        "meta_element_set_no": 999,
        "meta_rev_at_epoch": 3001,
        "meta_bstar": 0,
        "meta_mean_motion_dot": -3.25e-06,
        "meta_mean_motion_ddot": 0,
        "tle_line1": "1 42965U 17062A   25354.51634696 -.00000325  00000+0  00000+0 0  9990",
        "tle_line2": "2 42965  40.2219 345.7724 0751476 271.7049 153.5074  1.00250818 30012"
      },
      "geometry": {
        "type": "Point",
        "coordinates": [
          -168.4895122723564,
          -20.172385659086807
        ]
      }
    },
    {
      "type": "Feature",
      "properties": {
        "norad_id": 43001,
        "name": "BEIDOU-3 M1 (C19)",
        "group": "gnss",
        "lat": 42.20567303598735,
        "lon": 105.77835134472993,
        "alt_km": 21532.66143629245,
        "timestamp": "2025-12-20T22:39:10.872851+00:00",
        "meta_object_name": "BEIDOU-3 M1 (C19)",
        "meta_object_id": "2017-069A",
        "meta_epoch": "2025-12-19T06:04:23.941632",
        "meta_mean_motion": 1.86231412,
        "meta_eccentricity": 0.0009566,
        "meta_inclination": 56.5322,
        "meta_ra_of_asc_node": 69.0186,
        "meta_arg_of_pericenter": 302.1864,
        "meta_mean_anomaly": 57.7554,
        "meta_ephemeris_type": 0,
        "meta_classification_type": "U",
        "meta_norad_cat_id": 43001,
        "meta_element_set_no": 999,
        "meta_rev_at_epoch": 5525,
        "meta_bstar": 0,
        "meta_mean_motion_dot": -5.5e-07,
        "meta_mean_motion_ddot": 0,
        "tle_line1": "1 43001U 17069A   25353.25305488 -.00000055  00000+0  00000+0 0  9993",
        "tle_line2": "2 43001  56.5322  69.0186 0009566 302.1864  57.7554  1.86231412 55251"
      },
      "geometry": {
        "type": "Point",
        "coordinates": [
          105.77835134472993,
          42.20567303598735
        ]
      }
    },
    {
      "type": "Feature",
      "properties": {
        "norad_id": 43002,
        "name": "BEIDOU-3 M2 (C20)",
        "group": "gnss",
        "lat": 56.23251327500095,
        "lon": 167.9745364734163,
        "alt_km": 21531.912016769387,
        "timestamp": "2025-12-20T22:39:10.872860+00:00",
        "meta_object_name": "BEIDOU-3 M2 (C20)",
        "meta_object_id": "2017-069B",
        "meta_epoch": "2025-12-19T04:35:39.539904",
        "meta_mean_motion": 1.86231009,
        "meta_eccentricity": 0.0006519,
        "meta_inclination": 56.532,
        "meta_ra_of_asc_node": 69.0565,
        "meta_arg_of_pericenter": 330.2695,
        "meta_mean_anomaly": 29.7276,
        "meta_ephemeris_type": 0,
        "meta_classification_type": "U",
        "meta_norad_cat_id": 43002,
        "meta_element_set_no": 999,
        "meta_rev_at_epoch": 5524,
        "meta_bstar": 0,
        "meta_mean_motion_dot": -5.5e-07,
        "meta_mean_motion_ddot": 0,
        "tle_line1": "1 43002U 17069B   25353.19142986 -.00000055  00000+0  00000+0 0  9999",
        "tle_line2": "2 43002  56.5320  69.0565 0006519 330.2695  29.7276  1.86231009 55241"
      },
      "geometry": {
        "type": "Point",
        "coordinates": [
          167.9745364734163,
          56.23251327500095
        ]
      }
    },
    {
      "type": "Feature",
      "properties": {
        "norad_id": 43055,
        "name": "GSAT0215 (GALILEO 19)",
        "group": "gnss",
        "lat": 21.9894460580305,
        "lon": 30.079832570352163,
        "alt_km": 23223.088975263538,
        "timestamp": "2025-12-20T22:39:10.872870+00:00",
        "meta_object_name": "GSAT0215 (GALILEO 19)",
        "meta_object_id": "2017-079A",
        "meta_epoch": "2025-12-18T08:21:56.206080",
        "meta_mean_motion": 1.70474068,
        "meta_eccentricity": 0.00012335,
        "meta_inclination": 55.1282,
        "meta_ra_of_asc_node": 226.4832,
        "meta_arg_of_pericenter": 345.8587,
        "meta_mean_anomaly": 14.2435,
        "meta_ephemeris_type": 0,
        "meta_classification_type": "U",
        "meta_norad_cat_id": 43055,
        "meta_element_set_no": 999,
        "meta_rev_at_epoch": 4990,
        "meta_bstar": 0,
        "meta_mean_motion_dot": 6.2e-07,
        "meta_mean_motion_ddot": 0,
        "tle_line1": "1 43055U 17079A   25352.34856720  .00000062  00000+0  00000+0 0  9999",
        "tle_line2": "2 43055  55.1282 226.4832 0001233 345.8587  14.2435  1.70474068 49906"
      },
      "geometry": {
        "type": "Point",
        "coordinates": [
          30.079832570352163,
          21.9894460580305
        ]
      }
    },
    {
      "type": "Feature",
      "properties": {
        "norad_id": 43056,
        "name": "GSAT0216 (GALILEO 20)",
        "group": "gnss",
        "lat": -21.058163097485238,
        "lon": -149.13986351519594,
        "alt_km": 23218.131500641477,
        "timestamp": "2025-12-20T22:39:10.872879+00:00",
        "meta_object_name": "GSAT0216 (GALILEO 20)",
        "meta_object_id": "2017-079B",
        "meta_epoch": "2025-12-19T19:30:44.926272",
        "meta_mean_motion": 1.70474153,
        "meta_eccentricity": 0.00023685,
        "meta_inclination": 55.1281,
        "meta_ra_of_asc_node": 226.4428,
        "meta_arg_of_pericenter": 323.7267,
        "meta_mean_anomaly": 36.3665,
        "meta_ephemeris_type": 0,
        "meta_classification_type": "U",
        "meta_norad_cat_id": 43056,
        "meta_element_set_no": 999,
        "meta_rev_at_epoch": 4994,
        "meta_bstar": 0,
        "meta_mean_motion_dot": 6.9e-07,
        "meta_mean_motion_ddot": 0,
        "tle_line1": "1 43056U 17079B   25353.81301998  .00000069  00000+0  00000+0 0  9992",
        "tle_line2": "2 43056  55.1281 226.4428 0002368 323.7267  36.3665  1.70474153 49946"
      },
      "geometry": {
        "type": "Point",
        "coordinates": [
          -149.13986351519594,
          -21.058163097485238
        ]
      }
    }
  ]
}